start=new Date('2022-09-12T00:00:00.000Z').valueOf();
sats=[{"ECCENTRICITY":"0.00018210","GP_ID":"212359790","REF_FRAME":"TEME","RCS_SIZE":"LARGE","CENTER_NAME":"EARTH","PERIOD":"95.437","FILE":"3569361","NORAD_CAT_ID":"53132","MEAN_ELEMENT_THEORY":"SGP4","BSTAR":"-0.00105580000000","ARG_OF_PERICENTER":"55.9933","CLASSIFICATION_TYPE":"U","MEAN_MOTION_DOT":"-0.00017053","MEAN_MOTION":"15.08842891","INCLINATION":"53.2176","MEAN_ANOMALY":"159.1624","DECAY_DATE":null,"ELEMENT_SET_NO":"999","OBJECT_NAME":"STARLINK-4063","OBJECT_ID":"2022-083A","RA_OF_ASC_NODE":"136.8030","LAUNCH_DATE":"2022-07-17","SITE":"AFETR","APOAPSIS":"540.996","COUNTRY_CODE":"US","EPHEMERIS_TYPE":"0","REV_AT_EPOCH":"130","OBJECT_TYPE":"PAYLOAD","TIME_SYSTEM":"UTC","PERIAPSIS":"538.477","SEMIMAJOR_AXIS":"6917.872","MEAN_MOTION_DDOT":"0.0000000000000","EPOCH":"2022-09-11T22:00:00.999936","TLE_LINE2":"2 53132  53.2176 136.8030 0001821  55.9933 159.1624 15.08842891  1305","TLE_LINE1":"1 53132U 22083A   22254.91667824 -.00017053  00000-0 -10558-2 0  9996"},{"REV_AT_EPOCH":"130","OBJECT_TYPE":"PAYLOAD","EPHEMERIS_TYPE":"0","PERIAPSIS":"538.699","SEMIMAJOR_AXIS":"6918.018","MEAN_MOTION_DDOT":"0.0000000000000","EPOCH":"2022-09-11T22:00:00.999936","TLE_LINE2":"2 53133  53.2171 136.7982 0001712  50.3203  64.8116 15.08794880  1306","TLE_LINE1":"1 53133U 22083B   22254.91667824  .00054773  00000-0  34372-2 0  9995","TIME_SYSTEM":"UTC","RA_OF_ASC_NODE":"136.7982","OBJECT_ID":"2022-083B","APOAPSIS":"541.068","COUNTRY_CODE":"US","LAUNCH_DATE":"2022-07-17","SITE":"AFETR","MEAN_ANOMALY":"64.8116","MEAN_MOTION_DOT":"0.00054773","INCLINATION":"53.2171","MEAN_MOTION":"15.08794880","OBJECT_NAME":"STARLINK-4154","DECAY_DATE":null,"ELEMENT_SET_NO":"999","RCS_SIZE":"LARGE","CENTER_NAME":"EARTH","PERIOD":"95.440","GP_ID":"212359485","ECCENTRICITY":"0.00017120","REF_FRAME":"TEME","BSTAR":"0.00343720000000","CLASSIFICATION_TYPE":"U","ARG_OF_PERICENTER":"50.3203","NORAD_CAT_ID":"53133","FILE":"3569361","MEAN_ELEMENT_THEORY":"SGP4"},{"RA_OF_ASC_NODE":"136.8011","OBJECT_ID":"2022-083C","COUNTRY_CODE":"US","APOAPSIS":"541.022","SITE":"AFETR","LAUNCH_DATE":"2022-07-17","OBJECT_TYPE":"PAYLOAD","REV_AT_EPOCH":"130","EPHEMERIS_TYPE":"0","TLE_LINE1":"1 53134U 22083C   22254.91667824 -.00045327  00000-0 -28463-2 0  9997","TLE_LINE2":"2 53134  53.2141 136.8011 0001930  40.2198 134.9409 15.08859080  1309","PERIAPSIS":"538.352","SEMIMAJOR_AXIS":"6917.822","MEAN_MOTION_DDOT":"0.0000000000000","EPOCH":"2022-09-11T22:00:00.999936","TIME_SYSTEM":"UTC","PERIOD":"95.436","RCS_SIZE":"LARGE","CENTER_NAME":"EARTH","GP_ID":"212359224","ECCENTRICITY":"0.00019300","REF_FRAME":"TEME","ARG_OF_PERICENTER":"40.2198","BSTAR":"-0.00284630000000","CLASSIFICATION_TYPE":"U","MEAN_ELEMENT_THEORY":"SGP4","NORAD_CAT_ID":"53134","FILE":"3569361","MEAN_ANOMALY":"134.9409","INCLINATION":"53.2141","MEAN_MOTION":"15.08859080","MEAN_MOTION_DOT":"-0.00045327","OBJECT_NAME":"STARLINK-4150","ELEMENT_SET_NO":"999","DECAY_DATE":null},{"GP_ID":"212359946","REF_FRAME":"TEME","ECCENTRICITY":"0.00016670","RCS_SIZE":"LARGE","PERIOD":"95.435","CENTER_NAME":"EARTH","FILE":"3569361","NORAD_CAT_ID":"53135","MEAN_ELEMENT_THEORY":"SGP4","BSTAR":"-0.00349390000000","CLASSIFICATION_TYPE":"U","ARG_OF_PERICENTER":"45.2764","MEAN_MOTION_DOT":"-0.00055517","MEAN_MOTION":"15.08874212","INCLINATION":"53.2162","MEAN_ANOMALY":"89.8527","DECAY_DATE":null,"ELEMENT_SET_NO":"999","OBJECT_NAME":"STARLINK-4023","OBJECT_ID":"2022-083D","RA_OF_ASC_NODE":"136.8045","LAUNCH_DATE":"2022-07-17","SITE":"AFETR","APOAPSIS":"540.794","COUNTRY_CODE":"US","EPHEMERIS_TYPE":"0","REV_AT_EPOCH":"130","OBJECT_TYPE":"PAYLOAD","TIME_SYSTEM":"UTC","EPOCH":"2022-09-11T22:00:00.999936","PERIAPSIS":"538.488","SEMIMAJOR_AXIS":"6917.776","MEAN_MOTION_DDOT":"0.0000000000000","TLE_LINE2":"2 53135  53.2162 136.8045 0001667  45.2764  89.8527 15.08874212  1304","TLE_LINE1":"1 53135U 22083D   22254.91667824 -.00055517  00000-0 -34939-2 0  9995"},{"MEAN_MOTION_DDOT":"0.0000000000000","PERIAPSIS":"538.444","SEMIMAJOR_AXIS":"6917.825","EPOCH":"2022-09-11T22:00:00.999936","TLE_LINE1":"1 53136U 22083E   22254.91667824 -.00025085  00000-0 -15627-2 0  9996","TLE_LINE2":"2 53136  53.2173 136.8039 0001801  51.4458 103.6848 15.08858146  1308","TIME_SYSTEM":"UTC","REV_AT_EPOCH":"130","OBJECT_TYPE":"PAYLOAD","EPHEMERIS_TYPE":"0","APOAPSIS":"540.936","COUNTRY_CODE":"US","LAUNCH_DATE":"2022-07-17","SITE":"AFETR","RA_OF_ASC_NODE":"136.8039","OBJECT_ID":"2022-083E","OBJECT_NAME":"STARLINK-4152","ELEMENT_SET_NO":"999","DECAY_DATE":null,"MEAN_ANOMALY":"103.6848","MEAN_MOTION_DOT":"-0.00025085","MEAN_MOTION":"15.08858146","INCLINATION":"53.2173","BSTAR":"-0.00156270000000","ARG_OF_PERICENTER":"51.4458","CLASSIFICATION_TYPE":"U","FILE":"3569361","NORAD_CAT_ID":"53136","MEAN_ELEMENT_THEORY":"SGP4","PERIOD":"95.436","RCS_SIZE":"LARGE","CENTER_NAME":"EARTH","GP_ID":"212359376","REF_FRAME":"TEME","ECCENTRICITY":"0.00018010"},{"RA_OF_ASC_NODE":"136.8029","OBJECT_ID":"2022-083F","APOAPSIS":"540.839","COUNTRY_CODE":"US","LAUNCH_DATE":"2022-07-17","SITE":"AFETR","REV_AT_EPOCH":"130","OBJECT_TYPE":"PAYLOAD","EPHEMERIS_TYPE":"0","EPOCH":"2022-09-11T22:00:00.999936","PERIAPSIS":"538.483","SEMIMAJOR_AXIS":"6917.796","MEAN_MOTION_DDOT":"0.0000000000000","TLE_LINE2":"2 53137  53.2184 136.8029 0001703  53.1413 141.9838 15.08867593  1301","TLE_LINE1":"1 53137U 22083F   22254.91667824 -.00050203  00000-0 -31559-2 0  9999","TIME_SYSTEM":"UTC","RCS_SIZE":"LARGE","PERIOD":"95.436","CENTER_NAME":"EARTH","REF_FRAME":"TEME","GP_ID":"212359070","ECCENTRICITY":"0.00017030","BSTAR":"-0.00315590000000","CLASSIFICATION_TYPE":"U","ARG_OF_PERICENTER":"53.1413","FILE":"3569361","NORAD_CAT_ID":"53137","MEAN_ELEMENT_THEORY":"SGP4","MEAN_ANOMALY":"141.9838","MEAN_MOTION_DOT":"-0.00050203","MEAN_MOTION":"15.08867593","INCLINATION":"53.2184","OBJECT_NAME":"STARLINK-4145","DECAY_DATE":null,"ELEMENT_SET_NO":"999"},{"GP_ID":"212359639","REF_FRAME":"TEME","ECCENTRICITY":"0.00020520","PERIOD":"94.694","RCS_SIZE":"LARGE","CENTER_NAME":"EARTH","MEAN_ELEMENT_THEORY":"SGP4","FILE":"3569361","NORAD_CAT_ID":"53138","BSTAR":"-0.05208700000000","CLASSIFICATION_TYPE":"U","ARG_OF_PERICENTER":"36.7550","MEAN_MOTION":"15.20695356","INCLINATION":"53.2174","MEAN_MOTION_DOT":"-0.01061516","MEAN_ANOMALY":"149.4446","DECAY_DATE":null,"ELEMENT_SET_NO":"999","OBJECT_NAME":"STARLINK-4141","OBJECT_ID":"2022-083G","RA_OF_ASC_NODE":"132.0030","SITE":"AFETR","LAUNCH_DATE":"2022-07-17","COUNTRY_CODE":"US","APOAPSIS":"505.156","EPHEMERIS_TYPE":"0","OBJECT_TYPE":"PAYLOAD","REV_AT_EPOCH":"130","TIME_SYSTEM":"UTC","TLE_LINE2":"2 53138  53.2174 132.0030 0002052  36.7550 149.4446 15.20695356  1306","TLE_LINE1":"1 53138U 22083G   22254.91667824 -.01061516  00000-0 -52087-1 0  9998","PERIAPSIS":"502.332","SEMIMAJOR_AXIS":"6881.879","MEAN_MOTION_DDOT":"0.0000000000000","EPOCH":"2022-09-11T22:00:00.999936"},{"OBJECT_ID":"2022-083H","RA_OF_ASC_NODE":"136.7955","LAUNCH_DATE":"2022-07-17","SITE":"AFETR","APOAPSIS":"541.032","COUNTRY_CODE":"US","EPHEMERIS_TYPE":"0","REV_AT_EPOCH":"130","OBJECT_TYPE":"PAYLOAD","TIME_SYSTEM":"UTC","PERIAPSIS":"538.658","SEMIMAJOR_AXIS":"6917.980","MEAN_MOTION_DDOT":"0.0000000000000","EPOCH":"2022-09-11T22:00:00.999936","TLE_LINE1":"1 53139U 22083H   22254.91667824  .00038195  00000-0  24071-2 0  9996","TLE_LINE2":"2 53139  53.2177 136.7955 0001716  46.2329 208.8926 15.08807346  1306","GP_ID":"212360144","REF_FRAME":"TEME","ECCENTRICITY":"0.00017160","CENTER_NAME":"EARTH","RCS_SIZE":"LARGE","PERIOD":"95.440","NORAD_CAT_ID":"53139","FILE":"3569361","MEAN_ELEMENT_THEORY":"SGP4","ARG_OF_PERICENTER":"46.2329","BSTAR":"0.00240710000000","CLASSIFICATION_TYPE":"U","MEAN_MOTION_DOT":"0.00038195","INCLINATION":"53.2177","MEAN_MOTION":"15.08807346","MEAN_ANOMALY":"208.8926","DECAY_DATE":null,"ELEMENT_SET_NO":"999","OBJECT_NAME":"STARLINK-4185"},{"EPHEMERIS_TYPE":"0","REV_AT_EPOCH":"130","OBJECT_TYPE":"PAYLOAD","TIME_SYSTEM":"UTC","PERIAPSIS":"538.343","SEMIMAJOR_AXIS":"6917.855","EPOCH":"2022-09-11T22:00:00.999936","MEAN_MOTION_DDOT":"0.0000000000000","TLE_LINE2":"2 53140  53.2180 136.8041 0001990  49.4297 185.6949 15.08848372  1303","TLE_LINE1":"1 53140U 22083J   22254.91667824 -.00014912  00000-0 -92052-3 0  9996","OBJECT_ID":"2022-083J","RA_OF_ASC_NODE":"136.8041","LAUNCH_DATE":"2022-07-17","SITE":"AFETR","APOAPSIS":"541.096","COUNTRY_CODE":"US","MEAN_MOTION_DOT":"-0.00014912","MEAN_MOTION":"15.08848372","INCLINATION":"53.2180","MEAN_ANOMALY":"185.6949","DECAY_DATE":null,"ELEMENT_SET_NO":"999","OBJECT_NAME":"STARLINK-4170","REF_FRAME":"TEME","GP_ID":"212359791","ECCENTRICITY":"0.00019900","RCS_SIZE":"LARGE","CENTER_NAME":"EARTH","PERIOD":"95.437","FILE":"3569361","NORAD_CAT_ID":"53140","MEAN_ELEMENT_THEORY":"SGP4","BSTAR":"-0.00092052000000","CLASSIFICATION_TYPE":"U","ARG_OF_PERICENTER":"49.4297"},{"OBJECT_TYPE":"PAYLOAD","REV_AT_EPOCH":"130","EPHEMERIS_TYPE":"0","TLE_LINE2":"2 53141  53.2156 136.7842 0001802  43.3286 291.8074 15.08866354  1307","TLE_LINE1":"1 53141U 22083K   22254.91667824 -.00035052  00000-0 -21934-2 0  9995","PERIAPSIS":"538.418","MEAN_MOTION_DDOT":"0.0000000000000","SEMIMAJOR_AXIS":"6917.800","EPOCH":"2022-09-11T22:00:00.999936","TIME_SYSTEM":"UTC","RA_OF_ASC_NODE":"136.7842","OBJECT_ID":"2022-083K","COUNTRY_CODE":"US","APOAPSIS":"540.911","SITE":"AFETR","LAUNCH_DATE":"2022-07-17","MEAN_ANOMALY":"291.8074","INCLINATION":"53.2156","MEAN_MOTION":"15.08866354","MEAN_MOTION_DOT":"-0.00035052","OBJECT_NAME":"STARLINK-4103","ELEMENT_SET_NO":"999","DECAY_DATE":null,"RCS_SIZE":"LARGE","CENTER_NAME":"EARTH","PERIOD":"95.436","REF_FRAME":"TEME","GP_ID":"212359486","ECCENTRICITY":"0.00018020","BSTAR":"-0.00219340000000","ARG_OF_PERICENTER":"43.3286","CLASSIFICATION_TYPE":"U","MEAN_ELEMENT_THEORY":"SGP4","NORAD_CAT_ID":"53141","FILE":"3569361"}];
